NORAD_CAT_ID,OBJECT_NAME,OBJECT_TYPE,EPOCH,MEAN_MOTION,ECCENTRICITY,INCLINATION,RA_OF_ASC_NODE,ARG_OF_PERICENTER,MEAN_ANOMALY,BSTAR,MEAN_MOTION_DOT,MEAN_MOTION_DDOT,TLE_LINE0,TLE_LINE1,TLE_LINE2,SEMIMAJOR_AXIS,PERIOD,APOGEE,PERIGEE,DECAYED
52870.0,STARLINK-4195,PAYLOAD,2023-04-07 12:34:43,15.08845134,0.0001313,53.2142,134.8109,88.2444,271.8698,0.00012579,1.715e-05,0.0,0 STARLINK-4195,1 52870U 22062AS  23097.52410997  .00001715  00000-0  12579-3 0  9993,2 52870  53.2142 134.8109 0001313  88.2444 271.8698 15.08845134 44823,6917.865,95.437,540.638,538.821,0.0
52870.0,STARLINK-4195,PAYLOAD,2023-04-08 10:50:07,15.08843066,0.0001234,53.2142,130.6479,92.7302,267.3832,0.00010591,1.398e-05,0.0,0 STARLINK-4195,1 52870U 22062AS  23098.45147087  .00001398  00000-0  10591-3 0  9992,2 52870  53.2142 130.6479 0001234  92.7302 267.3832 15.08843066 45454,6917.871,95.437,540.59,538.882,0.0
52870.0,STARLINK-4195,PAYLOAD,2023-04-09 02:43:58,15.08833,0.0001214,53.2143,127.674,95.2902,264.8229,0.00023805,3.502e-05,0.0,0 STARLINK-4195,1 52870U 22062AS  23099.11387728  .00003502  00000-0  23805-3 0  9995,2 52870  53.2143 127.6740 0001214  95.2902 264.8229 15.08833000 45554,6917.902,95.438,540.607,538.927,0.0
52870.0,STARLINK-4195,PAYLOAD,2023-04-09 12:16:17,15.08842778,0.0001227,53.2144,125.8899,94.6907,265.4225,9.2777e-05,1.189e-05,0.0,0 STARLINK-4195,1 52870U 22062AS  23099.51131073  .00001189  00000-0  92777-4 0  9993,2 52870  53.2144 125.8899 0001227  94.6907 265.4225 15.08842778 45120,6917.872,95.437,540.586,538.888,0.0
52870.0,STARLINK-4195,PAYLOAD,2023-04-10 10:31:41,15.08840227,0.0001238,53.2158,121.7268,97.9594,262.1539,7.9609e-05,9.79e-06,0.0,0 STARLINK-4195,1 52870U 22062AS  23100.43867635  .00000979  00000-0  79609-4 0  9992,2 52870  53.2158 121.7268 0001238  97.9594 262.1539 15.08840227 45264,6917.88,95.438,540.601,538.888,0.0
52870.0,STARLINK-4195,PAYLOAD,2023-04-10 13:42:27,15.08843659,0.0001205,53.2157,121.1315,97.5357,262.5772,0.0001019,1.334e-05,0.0,0 STARLINK-4195,1 52870U 22062AS  23100.57115326  .00001334  00000-0  10190-3 0  9995,2 52870  53.2157 121.1315 0001205  97.5357 262.5772 15.08843659 45778,6917.869,95.437,540.568,538.901,0.0
52870.0,STARLINK-4195,PAYLOAD,2023-04-10 18:28:37,15.08839561,0.0001294,53.2167,120.238,91.0925,269.0216,7.7348e-05,9.43e-06,0.0,0 STARLINK-4195,1 52870U 22062AS  23100.76987683  .00000943  00000-0  77348-4 0  9993,2 52870  53.2167 120.2380 0001294  91.0925 269.0216 15.08839561 45311,6917.882,95.438,540.642,538.852,0.0
52870.0,STARLINK-4195,PAYLOAD,2023-04-11 08:47:05,15.0884598,0.0001247,53.216,117.5607,91.1306,268.9829,9.8591e-05,1.282e-05,0.0,0 STARLINK-4195,1 52870U 22062AS  23101.36603185  .00001282  00000-0  98591-4 0  9992,2 52870  53.2160 117.5607 0001247  91.1306 268.9829 15.08845980 45407,6917.862,95.437,540.59,538.864,0.0
52870.0,STARLINK-4195,PAYLOAD,2023-04-11 18:19:24,15.08839849,0.0001272,53.2166,115.7805,83.3079,276.8058,8.5309e-05,1.07e-05,0.0,0 STARLINK-4195,1 52870U 22062AS  23101.76347675  .00001070  00000-0  85309-4 0  9993,2 52870  53.2166 115.7805 0001272  83.3079 276.8058 15.08839849 45950,6917.881,95.438,540.626,538.866,0.0
52870.0,STARLINK-4195,PAYLOAD,2023-04-12 11:48:38,15.08840164,0.0001182,53.2163,112.5036,108.7885,251.3235,2.6509e-05,1.34e-06,0.0,0 STARLINK-4195,1 52870U 22062AS  23102.49211763  .00000134  00000-0  26509-4 0  9999,2 52870  53.2163 112.5036 0001182 108.7885 251.3235 15.08840164 45570,6917.88,95.438,540.563,538.927,0.0
52870.0,STARLINK-4195,PAYLOAD,2023-04-13 10:04:02,15.08849983,0.0001218,53.2161,108.3426,100.0714,260.0416,9.5558e-05,1.234e-05,0.0,0 STARLINK-4195,1 52870U 22062AS  23103.41947141  .00001234  00000-0  95558-4 0  9990,2 52870  53.2161 108.3426 0001218 100.0714 260.0416 15.08849983 45712,6917.85,95.437,540.557,538.872,0.0
52870.0,STARLINK-4195,PAYLOAD,2023-04-13 11:39:25,15.08850104,0.000123,53.2157,108.0458,103.3123,256.8007,0.00018566,2.669e-05,0.0,0 STARLINK-4195,1 52870U 22062AS  23103.48571317  .00002669  00000-0  18566-3 0  9991,2 52870  53.2157 108.0458 0001230 103.3123 256.8007 15.08850104 46215,6917.85,95.437,540.565,538.864,0.0
52870.0,STARLINK-4195,PAYLOAD,2023-04-14 06:44:03,15.08844545,0.0001238,53.2154,104.4789,86.0849,274.0284,0.00020258,2.938e-05,0.0,0 STARLINK-4195,1 52870U 22062AS  23104.28059720  .00002938  00000-0  20258-3 0  9999,2 52870  53.2154 104.4789 0001238  86.0849 274.0284 15.08844545 45848,6917.866,95.437,540.588,538.875,0.0
52870.0,STARLINK-4195,PAYLOAD,2023-04-15 06:34:50,15.0884528,0.0001172,53.2145,100.0169,85.8966,274.216,0.0001127,1.506e-05,0.0,0 STARLINK-4195,1 52870U 22062AS  23105.27419597  .00001506  00000-0  11270-3 0  9995,2 52870  53.2145 100.0169 0001172  85.8966 274.2160 15.08845280 46489,6917.864,95.437,540.54,538.918,0.0
52870.0,STARLINK-4195,PAYLOAD,2023-04-15 16:07:09,15.08843806,0.0001235,53.2149,98.2337,87.3359,272.7775,3.7958e-05,3.16e-06,0.0,0 STARLINK-4195,1 52870U 22062AS  23105.67163571  .00000316  00000-0  37958-4 0  9997,2 52870  53.2149  98.2337 0001235  87.3359 272.7775 15.08843806 46051,6917.869,95.437,540.588,538.879,0.0
52870.0,STARLINK-4195,PAYLOAD,2023-04-16 06:25:37,15.08836956,0.000138,53.2171,95.5602,100.5073,259.6075,7.805e-06,-1.64e-06,0.0,0 STARLINK-4195,1 52870U 22062AS  23106.26780079 -.00000164  00000-0  78050-5 0  9992,2 52870  53.2171  95.5602 0001380 100.5073 259.6075 15.08836956 46632,6917.89,95.438,540.709,538.8,0.0
52870.0,STARLINK-4195,PAYLOAD,2023-04-16 15:57:56,15.0883538,0.0001297,53.2158,93.7751,94.0635,266.0505,-3.7595e-05,-8.86e-06,0.0,0 STARLINK-4195,1 52870U 22062AS  23106.66524211 -.00000886  00000-0 -37595-4 0  9990,2 52870  53.2158  93.7751 0001297  94.0635 266.0505 15.08835380 46203,6917.895,95.438,540.657,538.862,0.0
52870.0,STARLINK-4195,PAYLOAD,2023-04-17 07:51:48,15.08837165,0.000124,53.2173,90.8019,93.8244,266.289,7.0087e-05,8.28e-06,0.0,0 STARLINK-4195,1 52870U 22062AS  23107.32764680  .00000828  00000-0  70087-4 0  9997,2 52870  53.2173  90.8019 0001240  93.8244 266.2890 15.08837165 46792,6917.889,95.438,540.612,538.896,0.0
52870.0,STARLINK-4195,PAYLOAD,2023-04-17 15:48:44,15.08839746,0.0001319,53.2173,89.315,99.4561,260.658,5.0822e-05,5.21e-06,0.0,0 STARLINK-4195,1 52870U 22062AS  23107.65884616  .00000521  00000-0  50822-4 0  9990,2 52870  53.2173  89.3150 0001319  99.4561 260.6580 15.08839746 46355,6917.881,95.438,540.659,538.834,0.0
52870.0,STARLINK-4195,PAYLOAD,2023-04-18 09:17:58,15.08846305,0.0001239,53.2155,86.0416,90.0408,270.0726,0.00020662,3.003e-05,0.0,0 STARLINK-4195,1 52870U 22062AS  23108.38748182  .00003003  00000-0  20662-3 0  9994,2 52870  53.2155  86.0416 0001239  90.0408 270.0726 15.08846305 46460,6917.861,95.437,540.583,538.869,0.0
52870.0,STARLINK-4195,PAYLOAD,2023-04-18 15:39:31,15.08837147,0.0001241,53.2163,84.8498,81.0203,279.0929,1.7963e-05,-2e-08,0.0,0 STARLINK-4195,1 52870U 22062AS  23108.65244699 -.00000002  00000-0  17963-4 0  9996,2 52870  53.2163  84.8498 0001241  81.0203 279.0929 15.08837147 46997,6917.889,95.438,540.613,538.896,0.0
52870.0,STARLINK-4195,PAYLOAD,2023-04-19 07:33:23,15.08836581,0.0001117,53.2152,81.878,85.7622,274.3498,5.895e-05,6.5e-06,0.0,0 STARLINK-4195,1 52870U 22062AS  23109.31485127  .00000650  00000-0  58950-4 0  9992,2 52870  53.2152  81.8780 0001117  85.7622 274.3498 15.08836581 46602,6917.891,95.438,540.529,538.983,0.0
52870.0,STARLINK-4195,PAYLOAD,2023-04-19 15:30:18,15.0884066,0.0001131,53.2159,80.3916,84.7849,275.3272,0.00012828,1.754e-05,0.0,0 STARLINK-4195,1 52870U 22062AS  23109.64605025  .00001754  00000-0  12828-3 0  9998,2 52870  53.2159  80.3916 0001131  84.7849 275.3272 15.08840660 46659,6917.878,95.438,540.526,538.961,0.0
52870.0,STARLINK-4195,PAYLOAD,2023-04-20 07:24:09,15.0885217,0.0001152,53.2157,77.417,91.679,268.4334,0.00022282,3.261e-05,0.0,0 STARLINK-4195,1 52870U 22062AS  23110.30844460  .00003261  00000-0  22282-3 0  9991,2 52870  53.2157  77.4170 0001152  91.6790 268.4334 15.08852170 46753,6917.843,95.437,540.505,538.911,0.0
52870.0,STARLINK-4195,PAYLOAD,2023-04-20 15:21:05,15.08843168,8.58e-05,53.2162,75.932,88.6233,271.4858,6.3321e-05,7.2e-06,0.0,0 STARLINK-4195,1 52870U 22062AS  23110.63964818  .00000720  00000-0  63321-4 0  9994,2 52870  53.2162  75.9320 0000858  88.6233 271.4858 15.08843168 46807,6917.871,95.437,540.329,539.142,0.0
52870.0,STARLINK-4195,PAYLOAD,2023-04-21 04:04:11,15.08837844,0.0001254,53.2156,73.5527,92.684,267.4296,0.00015439,2.17e-05,0.0,0 STARLINK-4195,1 52870U 22062AS  23111.16957449  .00002170  00000-0  15439-3 0  9992,2 52870  53.2156  73.5527 0001254  92.6840 267.4296 15.08837844 46886,6917.887,95.438,540.619,538.884,0.0
52870.0,STARLINK-4195,PAYLOAD,2023-04-21 07:14:57,15.08840689,0.0001167,53.2158,72.9571,98.483,261.6295,0.00010166,1.33e-05,0.0,0 STARLINK-4195,1 52870U 22062AS  23111.30205189  .00001330  00000-0  10166-3 0  9994,2 52870  53.2158  72.9571 0001167  98.4830 261.6295 15.08840689 46905,6917.878,95.438,540.551,538.936,0.0
52870.0,STARLINK-4195,PAYLOAD,2023-04-22 05:30:20,15.0884917,0.000119,53.2152,68.7957,93.0723,267.0405,8.6516e-05,1.09e-05,0.0,0 STARLINK-4195,1 52870U 22062AS  23112.22940783  .00001090  00000-0  86516-4 0  9998,2 52870  53.2152  68.7957 0001190  93.0723 267.0405 15.08849170 47535,6917.852,95.437,540.541,538.894,0.0
52870.0,STARLINK-4195,PAYLOAD,2023-04-23 05:21:08,15.08841003,0.0001249,53.217,64.3349,99.0922,261.0211,4.5376e-05,4.34e-06,0.0,0 STARLINK-4195,1 52870U 22062AS  23113.22301130  .00000434  00000-0  45376-4 0  9996,2 52870  53.2170  64.3349 0001249  99.0922 261.0211 15.08841003 47686,6917.877,95.437,540.606,538.878,0.0
52870.0,STARLINK-4195,PAYLOAD,2023-04-24 06:47:17,15.08863484,0.000122,53.2183,59.5754,84.5157,275.5974,0.00032216,4.846e-05,0.0,0 STARLINK-4195,1 52870U 22062AS  23114.28283964  .00004846  00000-0  32216-3 0  9996,2 52870  53.2183  59.5754 0001220  84.5157 275.5974 15.08863484 47351,6917.809,95.436,540.518,538.83,0.0
